0 FENGYUN 1C DEB
1 30675U 99025AQH 13282.78135287  .00001474  00000-0  86892-3 0  6958
2 30675 099.0538 313.7908 0066893 199.5724 213.5538 14.08414400340434
0 FENGYUN 1C DEB
1 30675U 99025AQH 13285.83621925  .00001815  00000-0  10630-2 0  6973
2 30675 099.0530 316.8570 0067061 191.2209 222.4672 14.08422765340868
0 FENGYUN 1C DEB
1 30675U 99025AQH 13287.04634184  .00001891  00000-0  11065-2 0  6987
2 30675 099.0526 318.0714 0067101 187.8950 238.1241 14.08427633341031
0 FENGYUN 1C DEB
1 30675U 99025AQH 13288.81929523  .00002020  00000-0  11800-2 0  6990
2 30675 099.0520 319.8505 0067137 183.0454 227.5104 14.08438878341288
0 FENGYUN 1C DEB
1 30675U 99025AQH 13290.10129792  .00001711  00000-0  10034-2 0  7002
2 30675 099.0520 321.1375 0067161 179.5215 247.6867 14.08445269341462
0 FENGYUN 1C DEB
1 30675U 99025AQH 13291.39260028  .00002002  00000-0  11692-2 0  7018
2 30675 099.0519 322.4329 0067136 175.8339 315.1941 14.08448880341647
0 FENGYUN 1C DEB
1 30675U 99025AQH 13292.79899777  .00001931  00000-0  11287-2 0  7023
2 30675 099.0516 323.8442 0067163 171.9522 246.1756 14.08454078341841
0 FENGYUN 1C DEB
1 30675U 99025AQH 13294.07712340  .00002121  00000-0  12373-2 0  7036
2 30675 099.0515 325.1266 0067190 168.4640 246.7530 14.08458089342024
0 FENGYUN 1C DEB
1 30675U 99025AQH 13295.58396169  .00002190  00000-0  12765-2 0  7042
2 30675 099.0515 326.6384 0067229 164.3974 326.9680 14.08463393342233
